OBJECT_NAME,OBJECT_ID,EPOCH,MEAN_MOTION,ECCENTRICITY,INCLINATION,RA_OF_ASC_NODE,ARG_OF_PERICENTER,MEAN_ANOMALY,EPHEMERIS_TYPE,CLASSIFICATION_TYPE,NORAD_CAT_ID,ELEMENT_SET_NO,REV_AT_EPOCH,BSTAR,MEAN_MOTION_DOT,MEAN_MOTION_DDOT
SL-16 R/B,1994-074B,2025-12-05T02:22:43.065120,14.79276617,.00069943,97.7210,8.7072,158.1139,263.6832,0,U,23343,999,67326,.14585469E-3,.1035E-4,0
SL-16 R/B,1994-077B,2025-12-05T06:55:28.447680,14.15546019,.00045733,70.9811,191.0891,289.7964,70.2666,0,U,23405,999,60287,.76838635E-4,.102E-5,0
ARIANE 40+ R/B,1995-021B,2025-12-05T05:34:08.243040,14.39686751,.00077191,98.4660,46.9112,69.5876,358.8202,0,U,23561,999,60565,.22990197E-3,.676E-5,0
SL-16 R/B,1995-058B,2025-12-05T06:58:49.984320,14.15480065,.00148999,71.0226,18.4437,264.5871,95.3552,0,U,23705,999,55449,.22129987E-3,.385E-5,0
SL-16 R/B,1996-051B,2025-12-05T06:21:15.127488,14.12395337,.00192678,70.7600,15.1066,270.6455,89.2457,0,U,24298,999,50831,.51374942E-4,.46E-6,0
ORBVIEW 2 (SEASTAR),1997-037A,2025-12-05T07:36:58.779936,14.35408613,.00020245,98.8454,136.2051,5.2555,354.8651,0,U,24883,999,49493,.24111544E-3,.646E-5,0
SL-16 R/B,1998-043G,2025-12-05T06:58:42.041568,14.26022792,.0008892,98.8113,287.0675,290.8627,69.1600,0,U,25400,999,42553,.89247801E-4,.168E-5,0
SL-16 R/B,1998-045B,2025-12-05T06:39:37.742688,14.16175839,.00073506,71.0125,20.1198,188.8344,171.2651,0,U,25407,999,41373,.42728379E-4,.37E-6,0
ISS (ZARYA),1998-067A,2025-12-05T06:04:12.236160,15.49328184,.00035858,51.6297,179.5463,206.2517,153.8291,0,U,25544,999,54169,.2719745E-3,.14736E-3,0
CZ-4B R/B,1999-025C,2025-12-05T03:07:00.774048,14.18240948,.0036141,98.6778,20.5797,256.4929,164.8023,0,U,25732,999,37476,.11239301E-3,.189E-5,0
OKEAN-O,1999-039A,2025-12-05T03:36:49.613472,14.80141372,.00007554,97.9613,34.9175,80.0593,280.0704,0,U,25860,999,42040,.2083653E-3,.1529E-4,0
SL-16 R/B,1999-039B,2025-12-05T03:40:15.087360,14.81570054,.00143554,98.0135,33.3033,199.6012,160.4650,0,U,25861,999,42286,.17660931E-3,.1335E-4,0
DELTA 2 R/B,1999-041E,2025-12-05T04:58:54.514560,14.11371498,.05047839,51.7622,318.5134,69.5665,295.8716,0,U,25876,999,34968,.42210453E-3,.2381E-4,0
HELIOS 1B,1999-064A,2025-12-05T06:26:18.293856,14.87233593,.00021034,98.1756,233.7121,53.1502,306.9906,0,U,25977,999,67122,.49312645E-3,.4384E-4,0
TERRA,1999-068A,2025-12-05T06:27:52.145856,14.60939476,.00034645,97.9759,31.2276,112.9038,312.0870,0,U,25994,999,38129,.21596868E-3,.1013E-4,0
SL-16 R/B,2000-006B,2025-12-05T06:26:34.014336,14.15809074,.00180947,71.0030,296.3666,318.9996,40.9765,0,U,26070,999,33519,.1561956E-3,.26E-5,0
TITAN 4B R/B,2000-047B,2025-12-05T06:02:32.508096,15.08694784,.00395536,67.9902,305.8832,153.6511,206.6662,0,U,26474,999,37866,.44893985E-3,.7056E-4,0
ENVISAT,2002-009A,2025-12-05T08:05:27.071232,14.38995002,.00011381,98.3588,290.2657,82.0760,34.5892,0,U,27386,999,24560,.10435754E-3,.279E-5,0
IDEFIX & ARIANE 42P R/B,2002-021B,2025-12-05T07:28:05.103552,14.30941837,.00128645,98.5777,274.0989,103.6661,256.5955,0,U,27422,999,23052,.24688831E-3,.606E-5,0
AQUA,2002-022A,2025-12-05T07:20:21.043104,14.61781360,.0000847,98.4025,300.0643,111.3897,356.5490,0,U,27424,999,25494,.49689186E-3,.2431E-4,0
CZ-4B R/B,2002-024C,2025-12-05T03:32:10.771296,14.14525459,.00492112,98.9010,27.9451,291.9022,127.3136,0,U,27432,999,21587,.10028085E-3,.149E-5,0
MIDORI II (ADEOS-II),2002-056A,2025-12-05T07:04:02.481888,14.29197994,.00002228,98.7625,292.2122,7.1080,353.0104,0,U,27597,999,19681,.23501812E-3,.552E-5,0
H-2A R/B,2002-056E,2025-12-04T20:42:17.591040,14.33666492,.0071506,98.3051,297.9336,84.2452,330.0012,0,U,27601,999,20052,.24331E-3,.653E-5,0
CZ-4B R/B,2003-049C,2025-12-04T23:04:56.970336,14.54898778,.0048598,98.6781,325.2321,159.5512,200.7643,0,U,28059,999,17282,.18971E-3,.777E-5,0
CZ-2C R/B,2004-012C,2025-12-05T06:36:44.701632,15.54780596,.0016787,97.7434,31.2846,299.5634,60.3946,0,U,28222,999,18956,.74904979E-3,.50251E-3,0
SL-16 R/B,2004-021B,2025-12-05T06:24:57.052800,14.14582552,.00056917,71.0023,70.6456,210.6772,149.4019,0,U,28353,999,10948,-.26277136E-4,-.98E-6,0
CZ-4B R/B,2004-035C,2025-12-05T02:12:55.032768,15.27186481,.00320219,97.3611,9.5395,305.9699,53.8571,0,U,28415,999,16546,.55792283E-3,.15032E-3,0
CZ-2C R/B,2004-046B,2025-12-05T05:53:53.924064,14.26935357,.01406621,98.1983,255.0897,74.2900,287.3747,0,U,28480,999,9503,.13871035E-3,.334E-5,0
ARIANE 5 R/B,2004-049H,2025-12-05T07:23:36.123936,14.84985295,.00835009,98.2520,139.3230,297.3762,61.8973,0,U,28499,999,13178,.21245989E-3,.1862E-4,0
CZ-2D R/B,2005-024B,2025-12-04T23:44:36.823776,15.52606734,.00066826,97.3627,346.2370,31.7339,328.4316,0,U,28738,999,12505,.65382984E-3,.40276E-3,0
